CCSDS_OMM_VERS = 2.0
CREATION_DATE  = 
ORIGINATOR     = 

OBJECT_NAME    = STARLINK-36969
OBJECT_ID      = 2026-050A
CENTER_NAME    = EARTH
REF_FRAME      = TEME
TIME_SYSTEM    = UTC
MEAN_ELEMENT_THEORY = SGP/SGP4

EPOCH          = 2026-04-02T21:38:50.518176
MEAN_MOTION    = 15.81091374
ECCENTRICITY   = .00021092
INCLINATION    = 53.1572
RA_OF_ASC_NODE = 160.5001
ARG_OF_PERICENTER = 67.6414
MEAN_ANOMALY   = 292.4833

EPHEMERIS_TYPE = 0
CLASSIFICATION_TYPE = U
NORAD_CAT_ID   = 68167
ELEMENT_SET_NO = 999
REV_AT_EPOCH   = 430
BSTAR          = .24806403E-2
MEAN_MOTION_DOT = .525096E-2
MEAN_MOTION_DDOT = 0

CCSDS_OMM_VERS = 2.0
CREATION_DATE  = 
ORIGINATOR     = 

OBJECT_NAME    = STARLINK-36984
OBJECT_ID      = 2026-050B
CENTER_NAME    = EARTH
REF_FRAME      = TEME
TIME_SYSTEM    = UTC
MEAN_ELEMENT_THEORY = SGP/SGP4

EPOCH          = 2026-04-02T21:37:45.843456
MEAN_MOTION    = 15.81095558
ECCENTRICITY   = .0002288
INCLINATION    = 53.1572
RA_OF_ASC_NODE = 160.4949
ARG_OF_PERICENTER = 77.3371
MEAN_ANOMALY   = 282.7908

EPHEMERIS_TYPE = 0
CLASSIFICATION_TYPE = U
NORAD_CAT_ID   = 68168
ELEMENT_SET_NO = 999
REV_AT_EPOCH   = 430
BSTAR          = .25836615E-2
MEAN_MOTION_DOT = .548545E-2
MEAN_MOTION_DDOT = 0

CCSDS_OMM_VERS = 2.0
CREATION_DATE  = 
ORIGINATOR     = 

OBJECT_NAME    = STARLINK-37077
OBJECT_ID      = 2026-050C
CENTER_NAME    = EARTH
REF_FRAME      = TEME
TIME_SYSTEM    = UTC
MEAN_ELEMENT_THEORY = SGP/SGP4

EPOCH          = 2026-04-02T15:32:32.588160
MEAN_MOTION    = 15.81005417
ECCENTRICITY   = .00009939
INCLINATION    = 53.1578
RA_OF_ASC_NODE = 161.7570
ARG_OF_PERICENTER = 64.2750
MEAN_ANOMALY   = 295.8376

EPHEMERIS_TYPE = 0
CLASSIFICATION_TYPE = U
NORAD_CAT_ID   = 68169
ELEMENT_SET_NO = 999
REV_AT_EPOCH   = 426
BSTAR          = .14096982E-2
MEAN_MOTION_DOT = .288796E-2
MEAN_MOTION_DDOT = 0

CCSDS_OMM_VERS = 2.0
CREATION_DATE  = 
ORIGINATOR     = 

OBJECT_NAME    = STARLINK-37003
OBJECT_ID      = 2026-050D
CENTER_NAME    = EARTH
REF_FRAME      = TEME
TIME_SYSTEM    = UTC
MEAN_ELEMENT_THEORY = SGP/SGP4

EPOCH          = 2026-04-02T21:35:36.205440
MEAN_MOTION    = 15.81136627
ECCENTRICITY   = .00026416
INCLINATION    = 53.1572
RA_OF_ASC_NODE = 160.4846
ARG_OF_PERICENTER = 62.0772
MEAN_ANOMALY   = 298.0518

EPHEMERIS_TYPE = 0
CLASSIFICATION_TYPE = U
NORAD_CAT_ID   = 68170
ELEMENT_SET_NO = 999
REV_AT_EPOCH   = 430
BSTAR          = .30993618E-2
MEAN_MOTION_DOT = .668802E-2
MEAN_MOTION_DDOT = 0

CCSDS_OMM_VERS = 2.0
CREATION_DATE  = 
ORIGINATOR     = 

OBJECT_NAME    = STARLINK-37034
OBJECT_ID      = 2026-050E
CENTER_NAME    = EARTH
REF_FRAME      = TEME
TIME_SYSTEM    = UTC
MEAN_ELEMENT_THEORY = SGP/SGP4

EPOCH          = 2026-04-02T21:34:31.417536
MEAN_MOTION    = 15.81129766
ECCENTRICITY   = .00024827
INCLINATION    = 53.1577
RA_OF_ASC_NODE = 160.4797
ARG_OF_PERICENTER = 73.6606
MEAN_ANOMALY   = 286.4689

EPHEMERIS_TYPE = 0
CLASSIFICATION_TYPE = U
NORAD_CAT_ID   = 68171
ELEMENT_SET_NO = 999
REV_AT_EPOCH   = 430
BSTAR          = .30263797E-2
MEAN_MOTION_DOT = .65151E-2
MEAN_MOTION_DDOT = 0

CCSDS_OMM_VERS = 2.0
CREATION_DATE  = 
ORIGINATOR     = 

OBJECT_NAME    = STARLINK-37031
OBJECT_ID      = 2026-050F
CENTER_NAME    = EARTH
REF_FRAME      = TEME
TIME_SYSTEM    = UTC
MEAN_ELEMENT_THEORY = SGP/SGP4

EPOCH          = 2026-04-02T21:33:27.088416
MEAN_MOTION    = 15.81077097
ECCENTRICITY   = .00034578
INCLINATION    = 53.1574
RA_OF_ASC_NODE = 160.4743
ARG_OF_PERICENTER = 65.8864
MEAN_ANOMALY   = 294.2520

EPHEMERIS_TYPE = 0
CLASSIFICATION_TYPE = U
NORAD_CAT_ID   = 68172
ELEMENT_SET_NO = 999
REV_AT_EPOCH   = 430
BSTAR          = .25221559E-2
MEAN_MOTION_DOT = .534112E-2
MEAN_MOTION_DDOT = 0

CCSDS_OMM_VERS = 2.0
CREATION_DATE  = 
ORIGINATOR     = 

OBJECT_NAME    = STARLINK-37076
OBJECT_ID      = 2026-050G
CENTER_NAME    = EARTH
REF_FRAME      = TEME
TIME_SYSTEM    = UTC
MEAN_ELEMENT_THEORY = SGP/SGP4

EPOCH          = 2026-04-02T21:32:21.596352
MEAN_MOTION    = 15.81080568
ECCENTRICITY   = .00020119
INCLINATION    = 53.1575
RA_OF_ASC_NODE = 160.4699
ARG_OF_PERICENTER = 71.1572
MEAN_ANOMALY   = 288.9669

EPHEMERIS_TYPE = 0
CLASSIFICATION_TYPE = U
NORAD_CAT_ID   = 68173
ELEMENT_SET_NO = 999
REV_AT_EPOCH   = 430
BSTAR          = .23112956E-2
MEAN_MOTION_DOT = .486761E-2
MEAN_MOTION_DDOT = 0

CCSDS_OMM_VERS = 2.0
CREATION_DATE  = 
ORIGINATOR     = 

OBJECT_NAME    = STARLINK-37078
OBJECT_ID      = 2026-050H
CENTER_NAME    = EARTH
REF_FRAME      = TEME
TIME_SYSTEM    = UTC
MEAN_ELEMENT_THEORY = SGP/SGP4

EPOCH          = 2026-04-02T21:31:17.068512
MEAN_MOTION    = 15.81108341
ECCENTRICITY   = .00029989
INCLINATION    = 53.1572
RA_OF_ASC_NODE = 160.4650
ARG_OF_PERICENTER = 62.9434
MEAN_ANOMALY   = 297.1895

EPHEMERIS_TYPE = 0
CLASSIFICATION_TYPE = U
NORAD_CAT_ID   = 68174
ELEMENT_SET_NO = 999
REV_AT_EPOCH   = 430
BSTAR          = .27164722E-2
MEAN_MOTION_DOT = .579191E-2
MEAN_MOTION_DDOT = 0

CCSDS_OMM_VERS = 2.0
CREATION_DATE  = 
ORIGINATOR     = 

OBJECT_NAME    = STARLINK-36886
OBJECT_ID      = 2026-050J
CENTER_NAME    = EARTH
REF_FRAME      = TEME
TIME_SYSTEM    = UTC
MEAN_ELEMENT_THEORY = SGP/SGP4

EPOCH          = 2026-04-02T21:30:12.149280
MEAN_MOTION    = 15.81126395
ECCENTRICITY   = .00026768
INCLINATION    = 53.1580
RA_OF_ASC_NODE = 160.4595
ARG_OF_PERICENTER = 59.9223
MEAN_ANOMALY   = 300.2065

EPHEMERIS_TYPE = 0
CLASSIFICATION_TYPE = U
NORAD_CAT_ID   = 68175
ELEMENT_SET_NO = 999
REV_AT_EPOCH   = 430
BSTAR          = .29658615E-2
MEAN_MOTION_DOT = .637295E-2
MEAN_MOTION_DDOT = 0

CCSDS_OMM_VERS = 2.0
CREATION_DATE  = 
ORIGINATOR     = 

OBJECT_NAME    = STARLINK-36905
OBJECT_ID      = 2026-050K
CENTER_NAME    = EARTH
REF_FRAME      = TEME
TIME_SYSTEM    = UTC
MEAN_ELEMENT_THEORY = SGP/SGP4

EPOCH          = 2026-04-02T21:29:07.337184
MEAN_MOTION    = 15.81102034
ECCENTRICITY   = .00024018
INCLINATION    = 53.1574
RA_OF_ASC_NODE = 160.4548
ARG_OF_PERICENTER = 78.2901
MEAN_ANOMALY   = 281.8392

EPHEMERIS_TYPE = 0
CLASSIFICATION_TYPE = U
NORAD_CAT_ID   = 68176
ELEMENT_SET_NO = 999
REV_AT_EPOCH   = 430
BSTAR          = .26389682E-2
MEAN_MOTION_DOT = .561308E-2
MEAN_MOTION_DDOT = 0

CCSDS_OMM_VERS = 2.0
CREATION_DATE  = 
ORIGINATOR     = 

OBJECT_NAME    = STARLINK-36668
OBJECT_ID      = 2026-050L
CENTER_NAME    = EARTH
REF_FRAME      = TEME
TIME_SYSTEM    = UTC
MEAN_ELEMENT_THEORY = SGP/SGP4

EPOCH          = 2026-04-02T21:28:02.544960
MEAN_MOTION    = 15.81089624
ECCENTRICITY   = .00022126
INCLINATION    = 53.1578
RA_OF_ASC_NODE = 160.4495
ARG_OF_PERICENTER = 77.1848
MEAN_ANOMALY   = 282.9422

EPHEMERIS_TYPE = 0
CLASSIFICATION_TYPE = U
NORAD_CAT_ID   = 68177
ELEMENT_SET_NO = 999
REV_AT_EPOCH   = 430
BSTAR          = .2468351E-2
MEAN_MOTION_DOT = .522273E-2
MEAN_MOTION_DDOT = 0

CCSDS_OMM_VERS = 2.0
CREATION_DATE  = 
ORIGINATOR     = 

OBJECT_NAME    = STARLINK-36677
OBJECT_ID      = 2026-050M
CENTER_NAME    = EARTH
REF_FRAME      = TEME
TIME_SYSTEM    = UTC
MEAN_ELEMENT_THEORY = SGP/SGP4

EPOCH          = 2026-04-02T21:26:57.558336
MEAN_MOTION    = 15.81095557
ECCENTRICITY   = .00020052
INCLINATION    = 53.1581
RA_OF_ASC_NODE = 160.4439
ARG_OF_PERICENTER = 71.8534
MEAN_ANOMALY   = 288.2707

EPHEMERIS_TYPE = 0
CLASSIFICATION_TYPE = U
NORAD_CAT_ID   = 68178
ELEMENT_SET_NO = 999
REV_AT_EPOCH   = 430
BSTAR          = .25434839E-2
MEAN_MOTION_DOT = .539432E-2
MEAN_MOTION_DDOT = 0

