STARLINK-36969          
1 68167U 26050A   26092.90197359  .00525096  00000+0  24806-2 0  9991
2 68167  53.1572 160.5001 0002109  67.6414 292.4833 15.81091374  4303
STARLINK-36984          
1 68168U 26050B   26092.90122504  .00548545  00000+0  25837-2 0  9991
2 68168  53.1572 160.4949 0002288  77.3371 282.7908 15.81095558  4305
STARLINK-37077          
1 68169U 26050C   26092.64759940  .00288796  00000+0  14097-2 0  9998
2 68169  53.1578 161.7570 0000993  64.2750 295.8376 15.81005417  4267
STARLINK-37003          
1 68170U 26050D   26092.89972460  .00668802  00000+0  30994-2 0  9995
2 68170  53.1572 160.4846 0002641  62.0772 298.0518 15.81136627  4303
STARLINK-37034          
1 68171U 26050E   26092.89897474  .00651510  00000+0  30264-2 0  9995
2 68171  53.1577 160.4797 0002482  73.6606 286.4689 15.81129766  4307
STARLINK-37031          
1 68172U 26050F   26092.89823019  .00534112  00000+0  25222-2 0  9996
2 68172  53.1574 160.4743 0003457  65.8864 294.2520 15.81077097  4308
STARLINK-37076          
1 68173U 26050G   26092.89747218  .00486761  00000+0  23113-2 0  9996
2 68173  53.1575 160.4699 0002011  71.1572 288.9669 15.81080568  4302
STARLINK-37078          
1 68174U 26050H   26092.89672533  .00579191  00000+0  27165-2 0  9995
2 68174  53.1572 160.4650 0002998  62.9434 297.1895 15.81108341  4309
STARLINK-36886          
1 68175U 26050J   26092.89597395  .00637295  00000+0  29659-2 0  9998
2 68175  53.1580 160.4595 0002676  59.9223 300.2065 15.81126395  4306
STARLINK-36905          
1 68176U 26050K   26092.89522381  .00561308  00000+0  26390-2 0  9992
2 68176  53.1574 160.4548 0002401  78.2901 281.8392 15.81102034  4302
STARLINK-36668          
1 68177U 26050L   26092.89447390  .00522273  00000+0  24684-2 0  9991
2 68177  53.1578 160.4495 0002212  77.1848 282.9422 15.81089624  4301
STARLINK-36677          
1 68178U 26050M   26092.89372174  .00539432  00000+0  25435-2 0  9999
2 68178  53.1581 160.4439 0002005  71.8534 288.2707 15.81095557  4304
